ONEWEB-0461             
1 51649U 22012AD  25352.19726868  .00000156  00000+0  36848-3 0  9999
2 51649  87.9115  41.8320 0001663 101.6267 258.5051 13.17647593190052
ONEWEB-0463             
1 51650U 22012AE  25352.17870102  .00000086  00000+0  18824-3 0  9996
2 51650  87.9096  41.8787 0001837 100.9505 259.1834 13.17649795189835
ONEWEB-0464             
1 51651U 22012AF  25352.21834565  .00000582  00000+0  16295-2 0  9995
2 51651  87.8805  72.3641 0001793  94.6813 265.4519 13.10370439185625
ONEWEB-0468             
1 51652U 22012AG  25352.22501166  .00000634  00000+0  17791-2 0  9995
2 51652  87.8805  72.3558 0001940 101.0331 259.1014 13.10370993185608
ONEWEB-0473             
1 51653U 22012AH  25352.28643320  .00000513  00000+0  14319-2 0  9990
2 51653  87.8806  72.3468 0001847 103.8756 256.2577 13.10374754185619
ONEWEB-0474             
1 51654U 22012AJ  25352.27812719  .00000167  00000+0  44140-3 0  9991
2 51654  87.8817  72.3154 0001927  97.4852 262.6495 13.10375602185600
ONEWEB-0475             
1 51655U 22012AK  25352.19051034  .00000033  00000+0  51852-4 0  9999
2 51655  87.9102  41.8657 0002497  95.5406 264.6010 13.17649468189852
ONEWEB-0490             
1 54113U 22138A   25352.23572372  .00000025  00000+0  30965-4 0  9991
2 54113  87.9210 340.9614 0001927  81.7546 278.3805 13.19725460152964
